[{"OBJECT_NAME":"CUBESX-HSE 3 (RS42S)","OBJECT_ID":"2023-091N","EPOCH":"2026-03-09T22:57:25.321248","MEAN_MOTION":15.286147,"ECCENTRICITY":0.00127191,"INCLINATION":97.5203,"RA_OF_ASC_NODE":133.4295,"ARG_OF_PERICENTER":86.5376,"MEAN_ANOMALY":273.7318,"EPHEMERIS_TYPE":0,"CLASSIFICATION_TYPE":"U","NORAD_CAT_ID":57178,"ELEMENT_SET_NO":999,"REV_AT_EPOCH":14925,"BSTAR":0.00059055694,"MEAN_MOTION_DOT":0.00016417,"MEAN_MOTION_DDOT":0},{"OBJECT_NAME":"STARLINK-34152","OBJECT_ID":"2025-101G","EPOCH":"2026-03-09T05:09:30.095424","MEAN_MOTION":15.27622597,"ECCENTRICITY":0.00026669,"INCLINATION":43.0038,"RA_OF_ASC_NODE":0.5586,"ARG_OF_PERICENTER":260.3604,"MEAN_ANOMALY":99.6946,"EPHEMERIS_TYPE":0,"CLASSIFICATION_TYPE":"U","NORAD_CAT_ID":64000,"ELEMENT_SET_NO":999,"REV_AT_EPOCH":4698,"BSTAR":0.0017213719,"MEAN_MOTION_DOT":0.00047476,"MEAN_MOTION_DDOT":0}]
